<?xml version="1.0" encoding="UTF-8"?>
<osm version="0.6" generator="osmAG_Generator">
  <node id="-1000" action="modify" visible="true" lat="31.177153641" lon="121.594053967" root="true" alt="0" qx="0" qy="0" qz="0">
    <tag k="osmAG:type" v="origin"/>
  </node>
  <node id="-1001" action="modify" visible="true" lat="31.177162009" lon="121.594043871"/>
  <node id="-1002" action="modify" visible="true" lat="31.177161559" lon="121.594041768"/>
  <node id="-1003" action="modify" visible="true" lat="31.177162459" lon="121.594041242"/>
  <node id="-1004" action="modify" visible="true" lat="31.177164708" lon="121.594041768"/>
  <node id="-1005" action="modify" visible="true" lat="31.177165608" lon="121.594042294"/>
  <node id="-1006" action="modify" visible="true" lat="31.177167408" lon="121.594045974"/>
  <node id="-1007" action="modify" visible="true" lat="31.177169207" lon="121.594046500"/>
  <node id="-1008" action="modify" visible="true" lat="31.177170557" lon="121.594046500"/>
  <node id="-1009" action="modify" visible="true" lat="31.177171906" lon="121.594046500"/>
  <node id="-1010" action="modify" visible="true" lat="31.177173256" lon="121.594046500"/>
  <node id="-1011" action="modify" visible="true" lat="31.177174606" lon="121.594046500"/>
  <node id="-1012" action="modify" visible="true" lat="31.177175955" lon="121.594046500"/>
  <node id="-1013" action="modify" visible="true" lat="31.177178655" lon="121.594043871"/>
  <node id="-1014" action="modify" visible="true" lat="31.177178655" lon="121.594042294"/>
  <node id="-1015" action="modify" visible="true" lat="31.177178655" lon="121.594040716"/>
  <node id="-1016" action="modify" visible="true" lat="31.177178655" lon="121.594039139"/>
  <node id="-1017" action="modify" visible="true" lat="31.177178655" lon="121.594037561"/>
  <node id="-1018" action="modify" visible="true" lat="31.177178655" lon="121.594035984"/>
  <node id="-1019" action="modify" visible="true" lat="31.177179105" lon="121.594032829"/>
  <node id="-1020" action="modify" visible="true" lat="31.177179105" lon="121.594031251"/>
  <node id="-1021" action="modify" visible="true" lat="31.177179105" lon="121.594029674"/>
  <node id="-1022" action="modify" visible="true" lat="31.177179105" lon="121.594028096"/>
  <node id="-1023" action="modify" visible="true" lat="31.177179105" lon="121.594026519"/>
  <node id="-1024" action="modify" visible="true" lat="31.177179105" lon="121.594024941"/>
  <node id="-1025" action="modify" visible="true" lat="31.177179105" lon="121.594023364"/>
  <node id="-1026" action="modify" visible="true" lat="31.177179105" lon="121.594021786"/>
  <node id="-1027" action="modify" visible="true" lat="31.177179105" lon="121.594020209"/>
  <node id="-1028" action="modify" visible="true" lat="31.177179105" lon="121.594018631"/>
  <node id="-1029" action="modify" visible="true" lat="31.177179105" lon="121.594017054"/>
  <node id="-1030" action="modify" visible="true" lat="31.177179105" lon="121.594015476"/>
  <node id="-1031" action="modify" visible="true" lat="31.177179105" lon="121.594013899"/>
  <node id="-1032" action="modify" visible="true" lat="31.177179105" lon="121.594012321"/>
  <node id="-1033" action="modify" visible="true" lat="31.177179105" lon="121.594010744"/>
  <node id="-1034" action="modify" visible="true" lat="31.177179105" lon="121.594009166"/>
  <node id="-1035" action="modify" visible="true" lat="31.177179105" lon="121.594007589"/>
  <node id="-1036" action="modify" visible="true" lat="31.177179105" lon="121.594006011"/>
  <node id="-1037" action="modify" visible="true" lat="31.177176175" lon="121.594002611"/>
  <node id="-1038" action="modify" visible="true" lat="31.177172356" lon="121.594002856"/>
  <node id="-1039" action="modify" visible="true" lat="31.177172356" lon="121.594004434"/>
  <node id="-1040" action="modify" visible="true" lat="31.177172356" lon="121.594006011"/>
  <node id="-1041" action="modify" visible="true" lat="31.177171007" lon="121.594006011"/>
  <node id="-1042" action="modify" visible="true" lat="31.177169657" lon="121.594006011"/>
  <node id="-1043" action="modify" visible="true" lat="31.177168307" lon="121.594006011"/>
  <node id="-1044" action="modify" visible="true" lat="31.177166958" lon="121.594006011"/>
  <node id="-1045" action="modify" visible="true" lat="31.177164258" lon="121.594005485"/>
  <node id="-1046" action="modify" visible="true" lat="31.177162909" lon="121.594005485"/>
  <node id="-1047" action="modify" visible="true" lat="31.177161109" lon="121.594006537"/>
  <node id="-1048" action="modify" visible="true" lat="31.177159310" lon="121.594006537"/>
  <node id="-1049" action="modify" visible="true" lat="31.177157960" lon="121.594006537"/>
  <node id="-1050" action="modify" visible="true" lat="31.177156610" lon="121.594006537"/>
  <node id="-1051" action="modify" visible="true" lat="31.177156160" lon="121.594005485"/>
  <node id="-1052" action="modify" visible="true" lat="31.177154811" lon="121.594001804"/>
  <node id="-1053" action="modify" visible="true" lat="31.177154361" lon="121.594000753"/>
  <node id="-1054" action="modify" visible="true" lat="31.177150616" lon="121.594001125"/>
  <node id="-1055" action="modify" visible="true" lat="31.177151043" lon="121.594003119"/>
  <node id="-1056" action="modify" visible="true" lat="31.177150616" lon="121.594001125"/>
  <node id="-1057" action="modify" visible="true" lat="31.177147163" lon="121.594002856"/>
  <node id="-1058" action="modify" visible="true" lat="31.177147613" lon="121.594005485"/>
  <node id="-1059" action="modify" visible="true" lat="31.177147163" lon="121.594006537"/>
  <node id="-1060" action="modify" visible="true" lat="31.177144463" lon="121.594006537"/>
  <node id="-1061" action="modify" visible="true" lat="31.177141314" lon="121.594006537"/>
  <node id="-1062" action="modify" visible="true" lat="31.177139964" lon="121.594006537"/>
  <node id="-1063" action="modify" visible="true" lat="31.177138615" lon="121.594006537"/>
  <node id="-1064" action="modify" visible="true" lat="31.177137265" lon="121.594006537"/>
  <node id="-1065" action="modify" visible="true" lat="31.177135915" lon="121.594006537"/>
  <node id="-1066" action="modify" visible="true" lat="31.177134566" lon="121.594006537"/>
  <node id="-1067" action="modify" visible="true" lat="31.177133216" lon="121.594006537"/>
  <node id="-1068" action="modify" visible="true" lat="31.177131866" lon="121.594006537"/>
  <node id="-1069" action="modify" visible="true" lat="31.177130517" lon="121.594006537"/>
  <node id="-1070" action="modify" visible="true" lat="31.177129167" lon="121.594006537"/>
  <node id="-1071" action="modify" visible="true" lat="31.177127817" lon="121.594006537"/>
  <node id="-1072" action="modify" visible="true" lat="31.177125118" lon="121.594009166"/>
  <node id="-1073" action="modify" visible="true" lat="31.177125118" lon="121.594010744"/>
  <node id="-1074" action="modify" visible="true" lat="31.177125118" lon="121.594012321"/>
  <node id="-1075" action="modify" visible="true" lat="31.177125118" lon="121.594013899"/>
  <node id="-1076" action="modify" visible="true" lat="31.177125118" lon="121.594015476"/>
  <node id="-1077" action="modify" visible="true" lat="31.177125118" lon="121.594017054"/>
  <node id="-1078" action="modify" visible="true" lat="31.177125118" lon="121.594018631"/>
  <node id="-1079" action="modify" visible="true" lat="31.177125118" lon="121.594020209"/>
  <node id="-1080" action="modify" visible="true" lat="31.177124668" lon="121.594022312"/>
  <node id="-1081" action="modify" visible="true" lat="31.177125118" lon="121.594024415"/>
  <node id="-1082" action="modify" visible="true" lat="31.177125118" lon="121.594025993"/>
  <node id="-1083" action="modify" visible="true" lat="31.177125118" lon="121.594027570"/>
  <node id="-1084" action="modify" visible="true" lat="31.177125118" lon="121.594029148"/>
  <node id="-1085" action="modify" visible="true" lat="31.177125118" lon="121.594030725"/>
  <node id="-1086" action="modify" visible="true" lat="31.177124668" lon="121.594033354"/>
  <node id="-1087" action="modify" visible="true" lat="31.177125118" lon="121.594035458"/>
  <node id="-1088" action="modify" visible="true" lat="31.177125118" lon="121.594037035"/>
  <node id="-1089" action="modify" visible="true" lat="31.177125118" lon="121.594038613"/>
  <node id="-1090" action="modify" visible="true" lat="31.177125118" lon="121.594040190"/>
  <node id="-1091" action="modify" visible="true" lat="31.177125118" lon="121.594041768"/>
  <node id="-1092" action="modify" visible="true" lat="31.177127368" lon="121.594044397"/>
  <node id="-1093" action="modify" visible="true" lat="31.177128717" lon="121.594044397"/>
  <node id="-1094" action="modify" visible="true" lat="31.177130067" lon="121.594044397"/>
  <node id="-1095" action="modify" visible="true" lat="31.177131417" lon="121.594044397"/>
  <node id="-1096" action="modify" visible="true" lat="31.177132766" lon="121.594044397"/>
  <node id="-1097" action="modify" visible="true" lat="31.177134116" lon="121.594044397"/>
  <node id="-1098" action="modify" visible="true" lat="31.177135466" lon="121.594044397"/>
  <node id="-1099" action="modify" visible="true" lat="31.177136815" lon="121.594044397"/>
  <node id="-1100" action="modify" visible="true" lat="31.177138165" lon="121.594044397"/>
  <node id="-1101" action="modify" visible="true" lat="31.177139515" lon="121.594044397"/>
  <node id="-1102" action="modify" visible="true" lat="31.177140864" lon="121.594044397"/>
  <node id="-1103" action="modify" visible="true" lat="31.177142214" lon="121.594044397"/>
  <node id="-1104" action="modify" visible="true" lat="31.177143564" lon="121.594044397"/>
  <node id="-1105" action="modify" visible="true" lat="31.177144913" lon="121.594044397"/>
  <node id="-1106" action="modify" visible="true" lat="31.177146263" lon="121.594044397"/>
  <node id="-1107" action="modify" visible="true" lat="31.177147613" lon="121.594044397"/>
  <node id="-1108" action="modify" visible="true" lat="31.177148962" lon="121.594044397"/>
  <node id="-1109" action="modify" visible="true" lat="31.177150312" lon="121.594044397"/>
  <node id="-1110" action="modify" visible="true" lat="31.177151661" lon="121.594044397"/>
  <node id="-1111" action="modify" visible="true" lat="31.177151886" lon="121.594025065"/>
  <node id="-1112" action="modify" visible="true" lat="31.177152111" lon="121.594044397"/>
  <node id="-1113" action="modify" visible="true" lat="31.177153461" lon="121.594044397"/>
  <node id="-1114" action="modify" visible="true" lat="31.177153011" lon="121.594047552"/>
  <node id="-1115" action="modify" visible="true" lat="31.177153011" lon="121.594049129"/>
  <node id="-1116" action="modify" visible="true" lat="31.177157714" lon="121.594049915"/>
  <node id="-1117" action="modify" visible="true" lat="31.177162459" lon="121.594049655"/>
  <node id="-1118" action="modify" visible="true" lat="31.177162009" lon="121.594047026"/>
  <node id="-1119" action="modify" visible="true" lat="31.177162009" lon="121.594045449"/>
  <node id="-1120" action="modify" visible="true" lat="31.177162009" lon="121.594043871"/>
  <node id="-1121" action="modify" visible="true" lat="31.177161559" lon="121.594041768"/>
  <node id="-1122" action="modify" visible="true" lat="31.177170557" lon="121.593958160"/>
  <node id="-1123" action="modify" visible="true" lat="31.177168757" lon="121.593958686"/>
  <node id="-1124" action="modify" visible="true" lat="31.177167408" lon="121.593959212"/>
  <node id="-1125" action="modify" visible="true" lat="31.177166058" lon="121.593961841"/>
  <node id="-1126" action="modify" visible="true" lat="31.177166058" lon="121.593963419"/>
  <node id="-1127" action="modify" visible="true" lat="31.177166058" lon="121.593964996"/>
  <node id="-1128" action="modify" visible="true" lat="31.177166058" lon="121.593966574"/>
  <node id="-1129" action="modify" visible="true" lat="31.177166058" lon="121.593968151"/>
  <node id="-1130" action="modify" visible="true" lat="31.177166058" lon="121.593969729"/>
  <node id="-1131" action="modify" visible="true" lat="31.177166058" lon="121.593971306"/>
  <node id="-1132" action="modify" visible="true" lat="31.177166058" lon="121.593972884"/>
  <node id="-1133" action="modify" visible="true" lat="31.177166058" lon="121.593974461"/>
  <node id="-1134" action="modify" visible="true" lat="31.177166058" lon="121.593976039"/>
  <node id="-1135" action="modify" visible="true" lat="31.177166058" lon="121.593977616"/>
  <node id="-1136" action="modify" visible="true" lat="31.177166058" lon="121.593979194"/>
  <node id="-1137" action="modify" visible="true" lat="31.177166058" lon="121.593980771"/>
  <node id="-1138" action="modify" visible="true" lat="31.177168307" lon="121.593983926"/>
  <node id="-1139" action="modify" visible="true" lat="31.177169657" lon="121.593983926"/>
  <node id="-1140" action="modify" visible="true" lat="31.177171007" lon="121.593983926"/>
  <node id="-1141" action="modify" visible="true" lat="31.177172356" lon="121.593984452"/>
  <node id="-1142" action="modify" visible="true" lat="31.177172356" lon="121.593986029"/>
  <node id="-1143" action="modify" visible="true" lat="31.177172356" lon="121.593987607"/>
  <node id="-1144" action="modify" visible="true" lat="31.177172356" lon="121.593989184"/>
  <node id="-1145" action="modify" visible="true" lat="31.177172356" lon="121.593990762"/>
  <node id="-1146" action="modify" visible="true" lat="31.177172356" lon="121.593992339"/>
  <node id="-1147" action="modify" visible="true" lat="31.177172356" lon="121.593993917"/>
  <node id="-1148" action="modify" visible="true" lat="31.177172356" lon="121.593995494"/>
  <node id="-1149" action="modify" visible="true" lat="31.177172356" lon="121.593997072"/>
  <node id="-1150" action="modify" visible="true" lat="31.177172356" lon="121.593998649"/>
  <node id="-1151" action="modify" visible="true" lat="31.177172356" lon="121.594000227"/>
  <node id="-1152" action="modify" visible="true" lat="31.177172356" lon="121.594001804"/>
  <node id="-1153" action="modify" visible="true" lat="31.177176175" lon="121.594002611"/>
  <node id="-1154" action="modify" visible="true" lat="31.177179105" lon="121.594005485"/>
  <node id="-1155" action="modify" visible="true" lat="31.177180004" lon="121.594004959"/>
  <node id="-1156" action="modify" visible="true" lat="31.177181354" lon="121.594004959"/>
  <node id="-1157" action="modify" visible="true" lat="31.177182704" lon="121.594004959"/>
  <node id="-1158" action="modify" visible="true" lat="31.177184053" lon="121.594004959"/>
  <node id="-1159" action="modify" visible="true" lat="31.177185403" lon="121.594004959"/>
  <node id="-1160" action="modify" visible="true" lat="31.177186753" lon="121.594004959"/>
  <node id="-1161" action="modify" visible="true" lat="31.177189002" lon="121.594002330"/>
  <node id="-1162" action="modify" visible="true" lat="31.177189002" lon="121.594000753"/>
  <node id="-1163" action="modify" visible="true" lat="31.177189002" lon="121.593999175"/>
  <node id="-1164" action="modify" visible="true" lat="31.177189002" lon="121.593997598"/>
  <node id="-1165" action="modify" visible="true" lat="31.177189002" lon="121.593996020"/>
  <node id="-1166" action="modify" visible="true" lat="31.177189002" lon="121.593994443"/>
  <node id="-1167" action="modify" visible="true" lat="31.177189002" lon="121.593992865"/>
  <node id="-1168" action="modify" visible="true" lat="31.177189002" lon="121.593991288"/>
  <node id="-1169" action="modify" visible="true" lat="31.177189002" lon="121.593989710"/>
  <node id="-1170" action="modify" visible="true" lat="31.177189002" lon="121.593988133"/>
  <node id="-1171" action="modify" visible="true" lat="31.177189002" lon="121.593986555"/>
  <node id="-1172" action="modify" visible="true" lat="31.177189002" lon="121.593984978"/>
  <node id="-1173" action="modify" visible="true" lat="31.177189002" lon="121.593983400"/>
  <node id="-1174" action="modify" visible="true" lat="31.177189002" lon="121.593981823"/>
  <node id="-1175" action="modify" visible="true" lat="31.177189002" lon="121.593980245"/>
  <node id="-1176" action="modify" visible="true" lat="31.177189002" lon="121.593978668"/>
  <node id="-1177" action="modify" visible="true" lat="31.177189002" lon="121.593977090"/>
  <node id="-1178" action="modify" visible="true" lat="31.177189002" lon="121.593975513"/>
  <node id="-1179" action="modify" visible="true" lat="31.177189002" lon="121.593973935"/>
  <node id="-1180" action="modify" visible="true" lat="31.177189002" lon="121.593972358"/>
  <node id="-1181" action="modify" visible="true" lat="31.177189002" lon="121.593970780"/>
  <node id="-1182" action="modify" visible="true" lat="31.177189002" lon="121.593969203"/>
  <node id="-1183" action="modify" visible="true" lat="31.177189002" lon="121.593967625"/>
  <node id="-1184" action="modify" visible="true" lat="31.177188102" lon="121.593964996"/>
  <node id="-1185" action="modify" visible="true" lat="31.177187203" lon="121.593962893"/>
  <node id="-1186" action="modify" visible="true" lat="31.177186303" lon="121.593962367"/>
  <node id="-1187" action="modify" visible="true" lat="31.177184503" lon="121.593961315"/>
  <node id="-1188" action="modify" visible="true" lat="31.177182704" lon="121.593960264"/>
  <node id="-1189" action="modify" visible="true" lat="31.177180454" lon="121.593959212"/>
  <node id="-1190" action="modify" visible="true" lat="31.177178655" lon="121.593958686"/>
  <node id="-1191" action="modify" visible="true" lat="31.177176855" lon="121.593958160"/>
  <node id="-1192" action="modify" visible="true" lat="31.177174606" lon="121.593957634"/>
  <node id="-1193" action="modify" visible="true" lat="31.177173256" lon="121.593957634"/>
  <node id="-1194" action="modify" visible="true" lat="31.177171007" lon="121.593958160"/>
  <node id="-1195" action="modify" visible="true" lat="31.177140414" lon="121.593970780"/>
  <node id="-1196" action="modify" visible="true" lat="31.177138165" lon="121.593972358"/>
  <node id="-1197" action="modify" visible="true" lat="31.177135915" lon="121.593970780"/>
  <node id="-1198" action="modify" visible="true" lat="31.177134566" lon="121.593970780"/>
  <node id="-1199" action="modify" visible="true" lat="31.177133216" lon="121.593970780"/>
  <node id="-1200" action="modify" visible="true" lat="31.177131866" lon="121.593970780"/>
  <node id="-1201" action="modify" visible="true" lat="31.177130517" lon="121.593970780"/>
  <node id="-1202" action="modify" visible="true" lat="31.177129167" lon="121.593970780"/>
  <node id="-1203" action="modify" visible="true" lat="31.177127817" lon="121.593970780"/>
  <node id="-1204" action="modify" visible="true" lat="31.177125568" lon="121.593973409"/>
  <node id="-1205" action="modify" visible="true" lat="31.177125118" lon="121.593976564"/>
  <node id="-1206" action="modify" visible="true" lat="31.177125118" lon="121.593978142"/>
  <node id="-1207" action="modify" visible="true" lat="31.177125118" lon="121.593979719"/>
  <node id="-1208" action="modify" visible="true" lat="31.177125118" lon="121.593981297"/>
  <node id="-1209" action="modify" visible="true" lat="31.177125118" lon="121.593982874"/>
  <node id="-1210" action="modify" visible="true" lat="31.177125118" lon="121.593984452"/>
  <node id="-1211" action="modify" visible="true" lat="31.177125118" lon="121.593986029"/>
  <node id="-1212" action="modify" visible="true" lat="31.177137940" lon="121.593987344"/>
  <node id="-1213" action="modify" visible="true" lat="31.177125118" lon="121.593987607"/>
  <node id="-1214" action="modify" visible="true" lat="31.177125118" lon="121.593989710"/>
  <node id="-1215" action="modify" visible="true" lat="31.177125118" lon="121.593991814"/>
  <node id="-1216" action="modify" visible="true" lat="31.177124668" lon="121.593993917"/>
  <node id="-1217" action="modify" visible="true" lat="31.177125568" lon="121.593996546"/>
  <node id="-1218" action="modify" visible="true" lat="31.177125118" lon="121.593999701"/>
  <node id="-1219" action="modify" visible="true" lat="31.177125568" lon="121.594001279"/>
  <node id="-1220" action="modify" visible="true" lat="31.177127368" lon="121.594002330"/>
  <node id="-1221" action="modify" visible="true" lat="31.177128717" lon="121.594001804"/>
  <node id="-1222" action="modify" visible="true" lat="31.177132316" lon="121.594001804"/>
  <node id="-1223" action="modify" visible="true" lat="31.177134116" lon="121.594001804"/>
  <node id="-1224" action="modify" visible="true" lat="31.177135915" lon="121.594002330"/>
  <node id="-1225" action="modify" visible="true" lat="31.177137265" lon="121.594002330"/>
  <node id="-1226" action="modify" visible="true" lat="31.177137940" lon="121.593987344"/>
  <node id="-1227" action="modify" visible="true" lat="31.177138165" lon="121.594002330"/>
  <node id="-1228" action="modify" visible="true" lat="31.177139515" lon="121.594002330"/>
  <node id="-1229" action="modify" visible="true" lat="31.177140864" lon="121.594002330"/>
  <node id="-1230" action="modify" visible="true" lat="31.177142664" lon="121.594001804"/>
  <node id="-1231" action="modify" visible="true" lat="31.177144463" lon="121.594002330"/>
  <node id="-1232" action="modify" visible="true" lat="31.177145813" lon="121.594002330"/>
  <node id="-1233" action="modify" visible="true" lat="31.177147163" lon="121.594002856"/>
  <node id="-1234" action="modify" visible="true" lat="31.177150616" lon="121.594001125"/>
  <node id="-1235" action="modify" visible="true" lat="31.177154361" lon="121.594000753"/>
  <node id="-1236" action="modify" visible="true" lat="31.177156160" lon="121.593997598"/>
  <node id="-1237" action="modify" visible="true" lat="31.177156610" lon="121.593994969"/>
  <node id="-1238" action="modify" visible="true" lat="31.177156610" lon="121.593993391"/>
  <node id="-1239" action="modify" visible="true" lat="31.177156610" lon="121.593991814"/>
  <node id="-1240" action="modify" visible="true" lat="31.177156610" lon="121.593990236"/>
  <node id="-1241" action="modify" visible="true" lat="31.177156610" lon="121.593988659"/>
  <node id="-1242" action="modify" visible="true" lat="31.177156610" lon="121.593987081"/>
  <node id="-1243" action="modify" visible="true" lat="31.177156610" lon="121.593985504"/>
  <node id="-1244" action="modify" visible="true" lat="31.177156610" lon="121.593983926"/>
  <node id="-1245" action="modify" visible="true" lat="31.177156610" lon="121.593982349"/>
  <node id="-1246" action="modify" visible="true" lat="31.177156610" lon="121.593980771"/>
  <node id="-1247" action="modify" visible="true" lat="31.177156610" lon="121.593979194"/>
  <node id="-1248" action="modify" visible="true" lat="31.177156610" lon="121.593977616"/>
  <node id="-1249" action="modify" visible="true" lat="31.177156610" lon="121.593976039"/>
  <node id="-1250" action="modify" visible="true" lat="31.177156610" lon="121.593974461"/>
  <node id="-1251" action="modify" visible="true" lat="31.177154361" lon="121.593970780"/>
  <node id="-1252" action="modify" visible="true" lat="31.177153011" lon="121.593970780"/>
  <node id="-1253" action="modify" visible="true" lat="31.177151661" lon="121.593970780"/>
  <node id="-1254" action="modify" visible="true" lat="31.177150312" lon="121.593970780"/>
  <node id="-1255" action="modify" visible="true" lat="31.177148962" lon="121.593970780"/>
  <node id="-1256" action="modify" visible="true" lat="31.177147613" lon="121.593970780"/>
  <node id="-1257" action="modify" visible="true" lat="31.177146263" lon="121.593970780"/>
  <node id="-1258" action="modify" visible="true" lat="31.177144913" lon="121.593970780"/>
  <node id="-1259" action="modify" visible="true" lat="31.177143564" lon="121.593970780"/>
  <node id="-1260" action="modify" visible="true" lat="31.177142214" lon="121.593970780"/>
  <node id="-1261" action="modify" visible="true" lat="31.177140864" lon="121.593970780"/>
  <node id="-1262" action="modify" visible="true" lat="31.177125118" lon="121.594074369"/>
  <node id="-1263" action="modify" visible="true" lat="31.177126468" lon="121.594076998"/>
  <node id="-1264" action="modify" visible="true" lat="31.177128717" lon="121.594078576"/>
  <node id="-1265" action="modify" visible="true" lat="31.177130067" lon="121.594078576"/>
  <node id="-1266" action="modify" visible="true" lat="31.177133216" lon="121.594078576"/>
  <node id="-1267" action="modify" visible="true" lat="31.177135915" lon="121.594078576"/>
  <node id="-1268" action="modify" visible="true" lat="31.177137265" lon="121.594078576"/>
  <node id="-1269" action="modify" visible="true" lat="31.177144463" lon="121.594078576"/>
  <node id="-1270" action="modify" visible="true" lat="31.177145813" lon="121.594078576"/>
  <node id="-1271" action="modify" visible="true" lat="31.177147163" lon="121.594078576"/>
  <node id="-1272" action="modify" visible="true" lat="31.177148512" lon="121.594078576"/>
  <node id="-1273" action="modify" visible="true" lat="31.177149862" lon="121.594078576"/>
  <node id="-1274" action="modify" visible="true" lat="31.177152561" lon="121.594078050"/>
  <node id="-1275" action="modify" visible="true" lat="31.177154361" lon="121.594077524"/>
  <node id="-1276" action="modify" visible="true" lat="31.177157510" lon="121.594078050"/>
  <node id="-1277" action="modify" visible="true" lat="31.177160209" lon="121.594077524"/>
  <node id="-1278" action="modify" visible="true" lat="31.177162909" lon="121.594074895"/>
  <node id="-1279" action="modify" visible="true" lat="31.177162909" lon="121.594073318"/>
  <node id="-1280" action="modify" visible="true" lat="31.177162909" lon="121.594071740"/>
  <node id="-1281" action="modify" visible="true" lat="31.177162909" lon="121.594070163"/>
  <node id="-1282" action="modify" visible="true" lat="31.177162909" lon="121.594068585"/>
  <node id="-1283" action="modify" visible="true" lat="31.177162459" lon="121.594066482"/>
  <node id="-1284" action="modify" visible="true" lat="31.177162459" lon="121.594064904"/>
  <node id="-1285" action="modify" visible="true" lat="31.177162459" lon="121.594063327"/>
  <node id="-1286" action="modify" visible="true" lat="31.177162459" lon="121.594061749"/>
  <node id="-1287" action="modify" visible="true" lat="31.177162459" lon="121.594060172"/>
  <node id="-1288" action="modify" visible="true" lat="31.177161109" lon="121.594057017"/>
  <node id="-1289" action="modify" visible="true" lat="31.177162459" lon="121.594054388"/>
  <node id="-1290" action="modify" visible="true" lat="31.177162459" lon="121.594052810"/>
  <node id="-1291" action="modify" visible="true" lat="31.177162459" lon="121.594051233"/>
  <node id="-1292" action="modify" visible="true" lat="31.177162459" lon="121.594049655"/>
  <node id="-1293" action="modify" visible="true" lat="31.177157714" lon="121.594049915"/>
  <node id="-1294" action="modify" visible="true" lat="31.177153011" lon="121.594049129"/>
  <node id="-1295" action="modify" visible="true" lat="31.177151661" lon="121.594049129"/>
  <node id="-1296" action="modify" visible="true" lat="31.177149412" lon="121.594049655"/>
  <node id="-1297" action="modify" visible="true" lat="31.177146713" lon="121.594049129"/>
  <node id="-1298" action="modify" visible="true" lat="31.177145363" lon="121.594049129"/>
  <node id="-1299" action="modify" visible="true" lat="31.177141314" lon="121.594049129"/>
  <node id="-1300" action="modify" visible="true" lat="31.177138615" lon="121.594048604"/>
  <node id="-1301" action="modify" visible="true" lat="31.177137265" lon="121.594048604"/>
  <node id="-1302" action="modify" visible="true" lat="31.177135915" lon="121.594048604"/>
  <node id="-1303" action="modify" visible="true" lat="31.177134566" lon="121.594048604"/>
  <node id="-1304" action="modify" visible="true" lat="31.177133216" lon="121.594048604"/>
  <node id="-1305" action="modify" visible="true" lat="31.177131866" lon="121.594048604"/>
  <node id="-1306" action="modify" visible="true" lat="31.177130517" lon="121.594048604"/>
  <node id="-1307" action="modify" visible="true" lat="31.177129167" lon="121.594048604"/>
  <node id="-1308" action="modify" visible="true" lat="31.177127817" lon="121.594048604"/>
  <node id="-1309" action="modify" visible="true" lat="31.177125118" lon="121.594051233"/>
  <node id="-1310" action="modify" visible="true" lat="31.177125118" lon="121.594052810"/>
  <node id="-1311" action="modify" visible="true" lat="31.177125118" lon="121.594054388"/>
  <node id="-1312" action="modify" visible="true" lat="31.177125118" lon="121.594055965"/>
  <node id="-1313" action="modify" visible="true" lat="31.177125118" lon="121.594057543"/>
  <node id="-1314" action="modify" visible="true" lat="31.177125118" lon="121.594059120"/>
  <node id="-1315" action="modify" visible="true" lat="31.177125118" lon="121.594060698"/>
  <node id="-1316" action="modify" visible="true" lat="31.177125118" lon="121.594062275"/>
  <node id="-1317" action="modify" visible="true" lat="31.177125118" lon="121.594063853"/>
  <node id="-1318" action="modify" visible="true" lat="31.177125118" lon="121.594065430"/>
  <node id="-1319" action="modify" visible="true" lat="31.177125118" lon="121.594067008"/>
  <node id="-1320" action="modify" visible="true" lat="31.177125118" lon="121.594068585"/>
  <node id="-1321" action="modify" visible="true" lat="31.177125118" lon="121.594070163"/>
  <node id="-1322" action="modify" visible="true" lat="31.177125118" lon="121.594071740"/>
  <node id="-1323" action="modify" visible="true" lat="31.177125118" lon="121.594073318"/>
  <node id="-1324" action="modify" visible="true" lat="31.177162009" lon="121.594043871"/>
  <node id="-1325" action="modify" visible="true" lat="31.177161559" lon="121.594041768"/>
  <node id="-1326" action="modify" visible="true" lat="31.177162459" lon="121.594041242"/>
  <node id="-1327" action="modify" visible="true" lat="31.177164708" lon="121.594041768"/>
  <node id="-1328" action="modify" visible="true" lat="31.177165608" lon="121.594042294"/>
  <node id="-1329" action="modify" visible="true" lat="31.177167408" lon="121.594045974"/>
  <node id="-1330" action="modify" visible="true" lat="31.177169207" lon="121.594046500"/>
  <node id="-1331" action="modify" visible="true" lat="31.177170557" lon="121.594046500"/>
  <node id="-1332" action="modify" visible="true" lat="31.177171906" lon="121.594046500"/>
  <node id="-1333" action="modify" visible="true" lat="31.177173256" lon="121.594046500"/>
  <node id="-1334" action="modify" visible="true" lat="31.177174606" lon="121.594046500"/>
  <node id="-1335" action="modify" visible="true" lat="31.177175955" lon="121.594046500"/>
  <node id="-1336" action="modify" visible="true" lat="31.177178655" lon="121.594043871"/>
  <node id="-1337" action="modify" visible="true" lat="31.177178655" lon="121.594042294"/>
  <node id="-1338" action="modify" visible="true" lat="31.177178655" lon="121.594040716"/>
  <node id="-1339" action="modify" visible="true" lat="31.177178655" lon="121.594039139"/>
  <node id="-1340" action="modify" visible="true" lat="31.177178655" lon="121.594037561"/>
  <node id="-1341" action="modify" visible="true" lat="31.177178655" lon="121.594035984"/>
  <node id="-1342" action="modify" visible="true" lat="31.177179105" lon="121.594032829"/>
  <node id="-1343" action="modify" visible="true" lat="31.177179105" lon="121.594031251"/>
  <node id="-1344" action="modify" visible="true" lat="31.177179105" lon="121.594029674"/>
  <node id="-1345" action="modify" visible="true" lat="31.177179105" lon="121.594028096"/>
  <node id="-1346" action="modify" visible="true" lat="31.177179105" lon="121.594026519"/>
  <node id="-1347" action="modify" visible="true" lat="31.177179105" lon="121.594024941"/>
  <node id="-1348" action="modify" visible="true" lat="31.177179105" lon="121.594023364"/>
  <node id="-1349" action="modify" visible="true" lat="31.177179105" lon="121.594021786"/>
  <node id="-1350" action="modify" visible="true" lat="31.177179105" lon="121.594020209"/>
  <node id="-1351" action="modify" visible="true" lat="31.177179105" lon="121.594018631"/>
  <node id="-1352" action="modify" visible="true" lat="31.177179105" lon="121.594017054"/>
  <node id="-1353" action="modify" visible="true" lat="31.177179105" lon="121.594015476"/>
  <node id="-1354" action="modify" visible="true" lat="31.177179105" lon="121.594013899"/>
  <node id="-1355" action="modify" visible="true" lat="31.177179105" lon="121.594012321"/>
  <node id="-1356" action="modify" visible="true" lat="31.177179105" lon="121.594010744"/>
  <node id="-1357" action="modify" visible="true" lat="31.177179105" lon="121.594009166"/>
  <node id="-1358" action="modify" visible="true" lat="31.177179105" lon="121.594007589"/>
  <node id="-1359" action="modify" visible="true" lat="31.177179105" lon="121.594006011"/>
  <node id="-1360" action="modify" visible="true" lat="31.177176175" lon="121.594002611"/>
  <node id="-1361" action="modify" visible="true" lat="31.177172356" lon="121.594002856"/>
  <node id="-1362" action="modify" visible="true" lat="31.177172356" lon="121.594004434"/>
  <node id="-1363" action="modify" visible="true" lat="31.177172356" lon="121.594006011"/>
  <node id="-1364" action="modify" visible="true" lat="31.177171007" lon="121.594006011"/>
  <node id="-1365" action="modify" visible="true" lat="31.177169657" lon="121.594006011"/>
  <node id="-1366" action="modify" visible="true" lat="31.177168307" lon="121.594006011"/>
  <node id="-1367" action="modify" visible="true" lat="31.177166958" lon="121.594006011"/>
  <node id="-1368" action="modify" visible="true" lat="31.177164258" lon="121.594005485"/>
  <node id="-1369" action="modify" visible="true" lat="31.177162909" lon="121.594005485"/>
  <node id="-1370" action="modify" visible="true" lat="31.177161109" lon="121.594006537"/>
  <node id="-1371" action="modify" visible="true" lat="31.177159310" lon="121.594006537"/>
  <node id="-1372" action="modify" visible="true" lat="31.177157960" lon="121.594006537"/>
  <node id="-1373" action="modify" visible="true" lat="31.177156610" lon="121.594006537"/>
  <node id="-1374" action="modify" visible="true" lat="31.177156160" lon="121.594005485"/>
  <node id="-1375" action="modify" visible="true" lat="31.177154811" lon="121.594001804"/>
  <node id="-1376" action="modify" visible="true" lat="31.177154361" lon="121.594000753"/>
  <node id="-1377" action="modify" visible="true" lat="31.177150616" lon="121.594001125"/>
  <node id="-1378" action="modify" visible="true" lat="31.177151043" lon="121.594003119"/>
  <node id="-1379" action="modify" visible="true" lat="31.177150616" lon="121.594001125"/>
  <node id="-1380" action="modify" visible="true" lat="31.177147163" lon="121.594002856"/>
  <node id="-1381" action="modify" visible="true" lat="31.177147613" lon="121.594005485"/>
  <node id="-1382" action="modify" visible="true" lat="31.177147163" lon="121.594006537"/>
  <node id="-1383" action="modify" visible="true" lat="31.177144463" lon="121.594006537"/>
  <node id="-1384" action="modify" visible="true" lat="31.177141314" lon="121.594006537"/>
  <node id="-1385" action="modify" visible="true" lat="31.177139964" lon="121.594006537"/>
  <node id="-1386" action="modify" visible="true" lat="31.177138615" lon="121.594006537"/>
  <node id="-1387" action="modify" visible="true" lat="31.177137265" lon="121.594006537"/>
  <node id="-1388" action="modify" visible="true" lat="31.177135915" lon="121.594006537"/>
  <node id="-1389" action="modify" visible="true" lat="31.177134566" lon="121.594006537"/>
  <node id="-1390" action="modify" visible="true" lat="31.177133216" lon="121.594006537"/>
  <node id="-1391" action="modify" visible="true" lat="31.177131866" lon="121.594006537"/>
  <node id="-1392" action="modify" visible="true" lat="31.177130517" lon="121.594006537"/>
  <node id="-1393" action="modify" visible="true" lat="31.177129167" lon="121.594006537"/>
  <node id="-1394" action="modify" visible="true" lat="31.177127817" lon="121.594006537"/>
  <node id="-1395" action="modify" visible="true" lat="31.177125118" lon="121.594009166"/>
  <node id="-1396" action="modify" visible="true" lat="31.177125118" lon="121.594010744"/>
  <node id="-1397" action="modify" visible="true" lat="31.177125118" lon="121.594012321"/>
  <node id="-1398" action="modify" visible="true" lat="31.177125118" lon="121.594013899"/>
  <node id="-1399" action="modify" visible="true" lat="31.177125118" lon="121.594015476"/>
  <node id="-1400" action="modify" visible="true" lat="31.177125118" lon="121.594017054"/>
  <node id="-1401" action="modify" visible="true" lat="31.177125118" lon="121.594018631"/>
  <node id="-1402" action="modify" visible="true" lat="31.177125118" lon="121.594020209"/>
  <node id="-1403" action="modify" visible="true" lat="31.177124668" lon="121.594022312"/>
  <node id="-1404" action="modify" visible="true" lat="31.177125118" lon="121.594024415"/>
  <node id="-1405" action="modify" visible="true" lat="31.177125118" lon="121.594025993"/>
  <node id="-1406" action="modify" visible="true" lat="31.177125118" lon="121.594027570"/>
  <node id="-1407" action="modify" visible="true" lat="31.177125118" lon="121.594029148"/>
  <node id="-1408" action="modify" visible="true" lat="31.177125118" lon="121.594030725"/>
  <node id="-1409" action="modify" visible="true" lat="31.177124668" lon="121.594033354"/>
  <node id="-1410" action="modify" visible="true" lat="31.177125118" lon="121.594035458"/>
  <node id="-1411" action="modify" visible="true" lat="31.177125118" lon="121.594037035"/>
  <node id="-1412" action="modify" visible="true" lat="31.177125118" lon="121.594038613"/>
  <node id="-1413" action="modify" visible="true" lat="31.177125118" lon="121.594040190"/>
  <node id="-1414" action="modify" visible="true" lat="31.177125118" lon="121.594041768"/>
  <node id="-1415" action="modify" visible="true" lat="31.177127368" lon="121.594044397"/>
  <node id="-1416" action="modify" visible="true" lat="31.177128717" lon="121.594044397"/>
  <node id="-1417" action="modify" visible="true" lat="31.177130067" lon="121.594044397"/>
  <node id="-1418" action="modify" visible="true" lat="31.177131417" lon="121.594044397"/>
  <node id="-1419" action="modify" visible="true" lat="31.177132766" lon="121.594044397"/>
  <node id="-1420" action="modify" visible="true" lat="31.177134116" lon="121.594044397"/>
  <node id="-1421" action="modify" visible="true" lat="31.177135466" lon="121.594044397"/>
  <node id="-1422" action="modify" visible="true" lat="31.177136815" lon="121.594044397"/>
  <node id="-1423" action="modify" visible="true" lat="31.177138165" lon="121.594044397"/>
  <node id="-1424" action="modify" visible="true" lat="31.177139515" lon="121.594044397"/>
  <node id="-1425" action="modify" visible="true" lat="31.177140864" lon="121.594044397"/>
  <node id="-1426" action="modify" visible="true" lat="31.177142214" lon="121.594044397"/>
  <node id="-1427" action="modify" visible="true" lat="31.177143564" lon="121.594044397"/>
  <node id="-1428" action="modify" visible="true" lat="31.177144913" lon="121.594044397"/>
  <node id="-1429" action="modify" visible="true" lat="31.177146263" lon="121.594044397"/>
  <node id="-1430" action="modify" visible="true" lat="31.177147613" lon="121.594044397"/>
  <node id="-1431" action="modify" visible="true" lat="31.177148962" lon="121.594044397"/>
  <node id="-1432" action="modify" visible="true" lat="31.177150312" lon="121.594044397"/>
  <node id="-1433" action="modify" visible="true" lat="31.177151661" lon="121.594044397"/>
  <node id="-1434" action="modify" visible="true" lat="31.177151886" lon="121.594025065"/>
  <node id="-1435" action="modify" visible="true" lat="31.177152111" lon="121.594044397"/>
  <node id="-1436" action="modify" visible="true" lat="31.177153461" lon="121.594044397"/>
  <node id="-1437" action="modify" visible="true" lat="31.177153011" lon="121.594047552"/>
  <node id="-1438" action="modify" visible="true" lat="31.177153011" lon="121.594049129"/>
  <node id="-1439" action="modify" visible="true" lat="31.177157714" lon="121.594049915"/>
  <node id="-1440" action="modify" visible="true" lat="31.177162459" lon="121.594049655"/>
  <node id="-1441" action="modify" visible="true" lat="31.177162009" lon="121.594047026"/>
  <node id="-1442" action="modify" visible="true" lat="31.177162009" lon="121.594045449"/>
  <node id="-1443" action="modify" visible="true" lat="31.177162009" lon="121.594043871"/>
  <node id="-1444" action="modify" visible="true" lat="31.177161559" lon="121.594041768"/>
  <node id="-1445" action="modify" visible="true" lat="31.177170557" lon="121.593958160"/>
  <node id="-1446" action="modify" visible="true" lat="31.177168757" lon="121.593958686"/>
  <node id="-1447" action="modify" visible="true" lat="31.177167408" lon="121.593959212"/>
  <node id="-1448" action="modify" visible="true" lat="31.177166058" lon="121.593961841"/>
  <node id="-1449" action="modify" visible="true" lat="31.177166058" lon="121.593963419"/>
  <node id="-1450" action="modify" visible="true" lat="31.177166058" lon="121.593964996"/>
  <node id="-1451" action="modify" visible="true" lat="31.177166058" lon="121.593966574"/>
  <node id="-1452" action="modify" visible="true" lat="31.177166058" lon="121.593968151"/>
  <node id="-1453" action="modify" visible="true" lat="31.177166058" lon="121.593969729"/>
  <node id="-1454" action="modify" visible="true" lat="31.177166058" lon="121.593971306"/>
  <node id="-1455" action="modify" visible="true" lat="31.177166058" lon="121.593972884"/>
  <node id="-1456" action="modify" visible="true" lat="31.177166058" lon="121.593974461"/>
  <node id="-1457" action="modify" visible="true" lat="31.177166058" lon="121.593976039"/>
  <node id="-1458" action="modify" visible="true" lat="31.177166058" lon="121.593977616"/>
  <node id="-1459" action="modify" visible="true" lat="31.177166058" lon="121.593979194"/>
  <node id="-1460" action="modify" visible="true" lat="31.177166058" lon="121.593980771"/>
  <node id="-1461" action="modify" visible="true" lat="31.177168307" lon="121.593983926"/>
  <node id="-1462" action="modify" visible="true" lat="31.177169657" lon="121.593983926"/>
  <node id="-1463" action="modify" visible="true" lat="31.177171007" lon="121.593983926"/>
  <node id="-1464" action="modify" visible="true" lat="31.177172356" lon="121.593984452"/>
  <node id="-1465" action="modify" visible="true" lat="31.177172356" lon="121.593986029"/>
  <node id="-1466" action="modify" visible="true" lat="31.177172356" lon="121.593987607"/>
  <node id="-1467" action="modify" visible="true" lat="31.177172356" lon="121.593989184"/>
  <node id="-1468" action="modify" visible="true" lat="31.177172356" lon="121.593990762"/>
  <node id="-1469" action="modify" visible="true" lat="31.177172356" lon="121.593992339"/>
  <node id="-1470" action="modify" visible="true" lat="31.177172356" lon="121.593993917"/>
  <node id="-1471" action="modify" visible="true" lat="31.177172356" lon="121.593995494"/>
  <node id="-1472" action="modify" visible="true" lat="31.177172356" lon="121.593997072"/>
  <node id="-1473" action="modify" visible="true" lat="31.177172356" lon="121.593998649"/>
  <node id="-1474" action="modify" visible="true" lat="31.177172356" lon="121.594000227"/>
  <node id="-1475" action="modify" visible="true" lat="31.177172356" lon="121.594001804"/>
  <node id="-1476" action="modify" visible="true" lat="31.177176175" lon="121.594002611"/>
  <node id="-1477" action="modify" visible="true" lat="31.177179105" lon="121.594005485"/>
  <node id="-1478" action="modify" visible="true" lat="31.177180004" lon="121.594004959"/>
  <node id="-1479" action="modify" visible="true" lat="31.177181354" lon="121.594004959"/>
  <node id="-1480" action="modify" visible="true" lat="31.177182704" lon="121.594004959"/>
  <node id="-1481" action="modify" visible="true" lat="31.177184053" lon="121.594004959"/>
  <node id="-1482" action="modify" visible="true" lat="31.177185403" lon="121.594004959"/>
  <node id="-1483" action="modify" visible="true" lat="31.177186753" lon="121.594004959"/>
  <node id="-1484" action="modify" visible="true" lat="31.177189002" lon="121.594002330"/>
  <node id="-1485" action="modify" visible="true" lat="31.177189002" lon="121.594000753"/>
  <node id="-1486" action="modify" visible="true" lat="31.177189002" lon="121.593999175"/>
  <node id="-1487" action="modify" visible="true" lat="31.177189002" lon="121.593997598"/>
  <node id="-1488" action="modify" visible="true" lat="31.177189002" lon="121.593996020"/>
  <node id="-1489" action="modify" visible="true" lat="31.177189002" lon="121.593994443"/>
  <node id="-1490" action="modify" visible="true" lat="31.177189002" lon="121.593992865"/>
  <node id="-1491" action="modify" visible="true" lat="31.177189002" lon="121.593991288"/>
  <node id="-1492" action="modify" visible="true" lat="31.177189002" lon="121.593989710"/>
  <node id="-1493" action="modify" visible="true" lat="31.177189002" lon="121.593988133"/>
  <node id="-1494" action="modify" visible="true" lat="31.177189002" lon="121.593986555"/>
  <node id="-1495" action="modify" visible="true" lat="31.177189002" lon="121.593984978"/>
  <node id="-1496" action="modify" visible="true" lat="31.177189002" lon="121.593983400"/>
  <node id="-1497" action="modify" visible="true" lat="31.177189002" lon="121.593981823"/>
  <node id="-1498" action="modify" visible="true" lat="31.177189002" lon="121.593980245"/>
  <node id="-1499" action="modify" visible="true" lat="31.177189002" lon="121.593978668"/>
  <node id="-1500" action="modify" visible="true" lat="31.177189002" lon="121.593977090"/>
  <node id="-1501" action="modify" visible="true" lat="31.177189002" lon="121.593975513"/>
  <node id="-1502" action="modify" visible="true" lat="31.177189002" lon="121.593973935"/>
  <node id="-1503" action="modify" visible="true" lat="31.177189002" lon="121.593972358"/>
  <node id="-1504" action="modify" visible="true" lat="31.177189002" lon="121.593970780"/>
  <node id="-1505" action="modify" visible="true" lat="31.177189002" lon="121.593969203"/>
  <node id="-1506" action="modify" visible="true" lat="31.177189002" lon="121.593967625"/>
  <node id="-1507" action="modify" visible="true" lat="31.177188102" lon="121.593964996"/>
  <node id="-1508" action="modify" visible="true" lat="31.177187203" lon="121.593962893"/>
  <node id="-1509" action="modify" visible="true" lat="31.177186303" lon="121.593962367"/>
  <node id="-1510" action="modify" visible="true" lat="31.177184503" lon="121.593961315"/>
  <node id="-1511" action="modify" visible="true" lat="31.177182704" lon="121.593960264"/>
  <node id="-1512" action="modify" visible="true" lat="31.177180454" lon="121.593959212"/>
  <node id="-1513" action="modify" visible="true" lat="31.177178655" lon="121.593958686"/>
  <node id="-1514" action="modify" visible="true" lat="31.177176855" lon="121.593958160"/>
  <node id="-1515" action="modify" visible="true" lat="31.177174606" lon="121.593957634"/>
  <node id="-1516" action="modify" visible="true" lat="31.177173256" lon="121.593957634"/>
  <node id="-1517" action="modify" visible="true" lat="31.177171007" lon="121.593958160"/>
  <node id="-1518" action="modify" visible="true" lat="31.177140414" lon="121.593970780"/>
  <node id="-1519" action="modify" visible="true" lat="31.177138165" lon="121.593972358"/>
  <node id="-1520" action="modify" visible="true" lat="31.177135915" lon="121.593970780"/>
  <node id="-1521" action="modify" visible="true" lat="31.177134566" lon="121.593970780"/>
  <node id="-1522" action="modify" visible="true" lat="31.177133216" lon="121.593970780"/>
  <node id="-1523" action="modify" visible="true" lat="31.177131866" lon="121.593970780"/>
  <node id="-1524" action="modify" visible="true" lat="31.177130517" lon="121.593970780"/>
  <node id="-1525" action="modify" visible="true" lat="31.177129167" lon="121.593970780"/>
  <node id="-1526" action="modify" visible="true" lat="31.177127817" lon="121.593970780"/>
  <node id="-1527" action="modify" visible="true" lat="31.177125568" lon="121.593973409"/>
  <node id="-1528" action="modify" visible="true" lat="31.177125118" lon="121.593976564"/>
  <node id="-1529" action="modify" visible="true" lat="31.177125118" lon="121.593978142"/>
  <node id="-1530" action="modify" visible="true" lat="31.177125118" lon="121.593979719"/>
  <node id="-1531" action="modify" visible="true" lat="31.177125118" lon="121.593981297"/>
  <node id="-1532" action="modify" visible="true" lat="31.177125118" lon="121.593982874"/>
  <node id="-1533" action="modify" visible="true" lat="31.177125118" lon="121.593984452"/>
  <node id="-1534" action="modify" visible="true" lat="31.177125118" lon="121.593986029"/>
  <node id="-1535" action="modify" visible="true" lat="31.177137940" lon="121.593987344"/>
  <node id="-1536" action="modify" visible="true" lat="31.177125118" lon="121.593987607"/>
  <node id="-1537" action="modify" visible="true" lat="31.177125118" lon="121.593989710"/>
  <node id="-1538" action="modify" visible="true" lat="31.177125118" lon="121.593991814"/>
  <node id="-1539" action="modify" visible="true" lat="31.177124668" lon="121.593993917"/>
  <node id="-1540" action="modify" visible="true" lat="31.177125568" lon="121.593996546"/>
  <node id="-1541" action="modify" visible="true" lat="31.177125118" lon="121.593999701"/>
  <node id="-1542" action="modify" visible="true" lat="31.177125568" lon="121.594001279"/>
  <node id="-1543" action="modify" visible="true" lat="31.177127368" lon="121.594002330"/>
  <node id="-1544" action="modify" visible="true" lat="31.177128717" lon="121.594001804"/>
  <node id="-1545" action="modify" visible="true" lat="31.177132316" lon="121.594001804"/>
  <node id="-1546" action="modify" visible="true" lat="31.177134116" lon="121.594001804"/>
  <node id="-1547" action="modify" visible="true" lat="31.177135915" lon="121.594002330"/>
  <node id="-1548" action="modify" visible="true" lat="31.177137265" lon="121.594002330"/>
  <node id="-1549" action="modify" visible="true" lat="31.177137940" lon="121.593987344"/>
  <node id="-1550" action="modify" visible="true" lat="31.177138165" lon="121.594002330"/>
  <node id="-1551" action="modify" visible="true" lat="31.177139515" lon="121.594002330"/>
  <node id="-1552" action="modify" visible="true" lat="31.177140864" lon="121.594002330"/>
  <node id="-1553" action="modify" visible="true" lat="31.177142664" lon="121.594001804"/>
  <node id="-1554" action="modify" visible="true" lat="31.177144463" lon="121.594002330"/>
  <node id="-1555" action="modify" visible="true" lat="31.177145813" lon="121.594002330"/>
  <node id="-1556" action="modify" visible="true" lat="31.177147163" lon="121.594002856"/>
  <node id="-1557" action="modify" visible="true" lat="31.177150616" lon="121.594001125"/>
  <node id="-1558" action="modify" visible="true" lat="31.177154361" lon="121.594000753"/>
  <node id="-1559" action="modify" visible="true" lat="31.177156160" lon="121.593997598"/>
  <node id="-1560" action="modify" visible="true" lat="31.177156610" lon="121.593994969"/>
  <node id="-1561" action="modify" visible="true" lat="31.177156610" lon="121.593993391"/>
  <node id="-1562" action="modify" visible="true" lat="31.177156610" lon="121.593991814"/>
  <node id="-1563" action="modify" visible="true" lat="31.177156610" lon="121.593990236"/>
  <node id="-1564" action="modify" visible="true" lat="31.177156610" lon="121.593988659"/>
  <node id="-1565" action="modify" visible="true" lat="31.177156610" lon="121.593987081"/>
  <node id="-1566" action="modify" visible="true" lat="31.177156610" lon="121.593985504"/>
  <node id="-1567" action="modify" visible="true" lat="31.177156610" lon="121.593983926"/>
  <node id="-1568" action="modify" visible="true" lat="31.177156610" lon="121.593982349"/>
  <node id="-1569" action="modify" visible="true" lat="31.177156610" lon="121.593980771"/>
  <node id="-1570" action="modify" visible="true" lat="31.177156610" lon="121.593979194"/>
  <node id="-1571" action="modify" visible="true" lat="31.177156610" lon="121.593977616"/>
  <node id="-1572" action="modify" visible="true" lat="31.177156610" lon="121.593976039"/>
  <node id="-1573" action="modify" visible="true" lat="31.177156610" lon="121.593974461"/>
  <node id="-1574" action="modify" visible="true" lat="31.177154361" lon="121.593970780"/>
  <node id="-1575" action="modify" visible="true" lat="31.177153011" lon="121.593970780"/>
  <node id="-1576" action="modify" visible="true" lat="31.177151661" lon="121.593970780"/>
  <node id="-1577" action="modify" visible="true" lat="31.177150312" lon="121.593970780"/>
  <node id="-1578" action="modify" visible="true" lat="31.177148962" lon="121.593970780"/>
  <node id="-1579" action="modify" visible="true" lat="31.177147613" lon="121.593970780"/>
  <node id="-1580" action="modify" visible="true" lat="31.177146263" lon="121.593970780"/>
  <node id="-1581" action="modify" visible="true" lat="31.177144913" lon="121.593970780"/>
  <node id="-1582" action="modify" visible="true" lat="31.177143564" lon="121.593970780"/>
  <node id="-1583" action="modify" visible="true" lat="31.177142214" lon="121.593970780"/>
  <node id="-1584" action="modify" visible="true" lat="31.177140864" lon="121.593970780"/>
  <node id="-1585" action="modify" visible="true" lat="31.177125118" lon="121.594074369"/>
  <node id="-1586" action="modify" visible="true" lat="31.177126468" lon="121.594076998"/>
  <node id="-1587" action="modify" visible="true" lat="31.177128717" lon="121.594078576"/>
  <node id="-1588" action="modify" visible="true" lat="31.177130067" lon="121.594078576"/>
  <node id="-1589" action="modify" visible="true" lat="31.177133216" lon="121.594078576"/>
  <node id="-1590" action="modify" visible="true" lat="31.177135915" lon="121.594078576"/>
  <node id="-1591" action="modify" visible="true" lat="31.177137265" lon="121.594078576"/>
  <node id="-1592" action="modify" visible="true" lat="31.177144463" lon="121.594078576"/>
  <node id="-1593" action="modify" visible="true" lat="31.177145813" lon="121.594078576"/>
  <node id="-1594" action="modify" visible="true" lat="31.177147163" lon="121.594078576"/>
  <node id="-1595" action="modify" visible="true" lat="31.177148512" lon="121.594078576"/>
  <node id="-1596" action="modify" visible="true" lat="31.177149862" lon="121.594078576"/>
  <node id="-1597" action="modify" visible="true" lat="31.177152561" lon="121.594078050"/>
  <node id="-1598" action="modify" visible="true" lat="31.177154361" lon="121.594077524"/>
  <node id="-1599" action="modify" visible="true" lat="31.177157510" lon="121.594078050"/>
  <node id="-1600" action="modify" visible="true" lat="31.177160209" lon="121.594077524"/>
  <node id="-1601" action="modify" visible="true" lat="31.177162909" lon="121.594074895"/>
  <node id="-1602" action="modify" visible="true" lat="31.177162909" lon="121.594073318"/>
  <node id="-1603" action="modify" visible="true" lat="31.177162909" lon="121.594071740"/>
  <node id="-1604" action="modify" visible="true" lat="31.177162909" lon="121.594070163"/>
  <node id="-1605" action="modify" visible="true" lat="31.177162909" lon="121.594068585"/>
  <node id="-1606" action="modify" visible="true" lat="31.177162459" lon="121.594066482"/>
  <node id="-1607" action="modify" visible="true" lat="31.177162459" lon="121.594064904"/>
  <node id="-1608" action="modify" visible="true" lat="31.177162459" lon="121.594063327"/>
  <node id="-1609" action="modify" visible="true" lat="31.177162459" lon="121.594061749"/>
  <node id="-1610" action="modify" visible="true" lat="31.177162459" lon="121.594060172"/>
  <node id="-1611" action="modify" visible="true" lat="31.177161109" lon="121.594057017"/>
  <node id="-1612" action="modify" visible="true" lat="31.177162459" lon="121.594054388"/>
  <node id="-1613" action="modify" visible="true" lat="31.177162459" lon="121.594052810"/>
  <node id="-1614" action="modify" visible="true" lat="31.177162459" lon="121.594051233"/>
  <node id="-1615" action="modify" visible="true" lat="31.177162459" lon="121.594049655"/>
  <node id="-1616" action="modify" visible="true" lat="31.177157714" lon="121.594049915"/>
  <node id="-1617" action="modify" visible="true" lat="31.177153011" lon="121.594049129"/>
  <node id="-1618" action="modify" visible="true" lat="31.177151661" lon="121.594049129"/>
  <node id="-1619" action="modify" visible="true" lat="31.177149412" lon="121.594049655"/>
  <node id="-1620" action="modify" visible="true" lat="31.177146713" lon="121.594049129"/>
  <node id="-1621" action="modify" visible="true" lat="31.177145363" lon="121.594049129"/>
  <node id="-1622" action="modify" visible="true" lat="31.177141314" lon="121.594049129"/>
  <node id="-1623" action="modify" visible="true" lat="31.177138615" lon="121.594048604"/>
  <node id="-1624" action="modify" visible="true" lat="31.177137265" lon="121.594048604"/>
  <node id="-1625" action="modify" visible="true" lat="31.177135915" lon="121.594048604"/>
  <node id="-1626" action="modify" visible="true" lat="31.177134566" lon="121.594048604"/>
  <node id="-1627" action="modify" visible="true" lat="31.177133216" lon="121.594048604"/>
  <node id="-1628" action="modify" visible="true" lat="31.177131866" lon="121.594048604"/>
  <node id="-1629" action="modify" visible="true" lat="31.177130517" lon="121.594048604"/>
  <node id="-1630" action="modify" visible="true" lat="31.177129167" lon="121.594048604"/>
  <node id="-1631" action="modify" visible="true" lat="31.177127817" lon="121.594048604"/>
  <node id="-1632" action="modify" visible="true" lat="31.177125118" lon="121.594051233"/>
  <node id="-1633" action="modify" visible="true" lat="31.177125118" lon="121.594052810"/>
  <node id="-1634" action="modify" visible="true" lat="31.177125118" lon="121.594054388"/>
  <node id="-1635" action="modify" visible="true" lat="31.177125118" lon="121.594055965"/>
  <node id="-1636" action="modify" visible="true" lat="31.177125118" lon="121.594057543"/>
  <node id="-1637" action="modify" visible="true" lat="31.177125118" lon="121.594059120"/>
  <node id="-1638" action="modify" visible="true" lat="31.177125118" lon="121.594060698"/>
  <node id="-1639" action="modify" visible="true" lat="31.177125118" lon="121.594062275"/>
  <node id="-1640" action="modify" visible="true" lat="31.177125118" lon="121.594063853"/>
  <node id="-1641" action="modify" visible="true" lat="31.177125118" lon="121.594065430"/>
  <node id="-1642" action="modify" visible="true" lat="31.177125118" lon="121.594067008"/>
  <node id="-1643" action="modify" visible="true" lat="31.177125118" lon="121.594068585"/>
  <node id="-1644" action="modify" visible="true" lat="31.177125118" lon="121.594070163"/>
  <node id="-1645" action="modify" visible="true" lat="31.177125118" lon="121.594071740"/>
  <node id="-1646" action="modify" visible="true" lat="31.177125118" lon="121.594073318"/>
  <node id="-1647" action="modify" visible="true" lat="31.177150616" lon="121.594000599"/>
  <node id="-1648" action="modify" visible="true" lat="31.177150616" lon="121.594001650"/>
  <node id="-1649" action="modify" visible="true" lat="31.177176175" lon="121.594002085"/>
  <node id="-1650" action="modify" visible="true" lat="31.177176175" lon="121.594003137"/>
  <node id="-1651" action="modify" visible="true" lat="31.177157714" lon="121.594049389"/>
  <node id="-1652" action="modify" visible="true" lat="31.177157714" lon="121.594050441"/>
  <way id="-2001" action="modify" visible="true">
    <nd ref="-1001"/>
    <nd ref="-1002"/>
    <nd ref="-1003"/>
    <nd ref="-1004"/>
    <nd ref="-1005"/>
    <nd ref="-1006"/>
    <nd ref="-1007"/>
    <nd ref="-1008"/>
    <nd ref="-1009"/>
    <nd ref="-1010"/>
    <nd ref="-1011"/>
    <nd ref="-1012"/>
    <nd ref="-1013"/>
    <nd ref="-1014"/>
    <nd ref="-1015"/>
    <nd ref="-1016"/>
    <nd ref="-1017"/>
    <nd ref="-1018"/>
    <nd ref="-1019"/>
    <nd ref="-1020"/>
    <nd ref="-1021"/>
    <nd ref="-1022"/>
    <nd ref="-1023"/>
    <nd ref="-1024"/>
    <nd ref="-1025"/>
    <nd ref="-1026"/>
    <nd ref="-1027"/>
    <nd ref="-1028"/>
    <nd ref="-1029"/>
    <nd ref="-1030"/>
    <nd ref="-1031"/>
    <nd ref="-1032"/>
    <nd ref="-1033"/>
    <nd ref="-1034"/>
    <nd ref="-1035"/>
    <nd ref="-1036"/>
    <nd ref="-1037"/>
    <nd ref="-1038"/>
    <nd ref="-1039"/>
    <nd ref="-1040"/>
    <nd ref="-1041"/>
    <nd ref="-1042"/>
    <nd ref="-1043"/>
    <nd ref="-1044"/>
    <nd ref="-1045"/>
    <nd ref="-1046"/>
    <nd ref="-1047"/>
    <nd ref="-1048"/>
    <nd ref="-1049"/>
    <nd ref="-1050"/>
    <nd ref="-1051"/>
    <nd ref="-1052"/>
    <nd ref="-1053"/>
    <nd ref="-1054"/>
    <nd ref="-1055"/>
    <nd ref="-1056"/>
    <nd ref="-1057"/>
    <nd ref="-1058"/>
    <nd ref="-1059"/>
    <nd ref="-1060"/>
    <nd ref="-1061"/>
    <nd ref="-1062"/>
    <nd ref="-1063"/>
    <nd ref="-1064"/>
    <nd ref="-1065"/>
    <nd ref="-1066"/>
    <nd ref="-1067"/>
    <nd ref="-1068"/>
    <nd ref="-1069"/>
    <nd ref="-1070"/>
    <nd ref="-1071"/>
    <nd ref="-1072"/>
    <nd ref="-1073"/>
    <nd ref="-1074"/>
    <nd ref="-1075"/>
    <nd ref="-1076"/>
    <nd ref="-1077"/>
    <nd ref="-1078"/>
    <nd ref="-1079"/>
    <nd ref="-1080"/>
    <nd ref="-1081"/>
    <nd ref="-1082"/>
    <nd ref="-1083"/>
    <nd ref="-1084"/>
    <nd ref="-1085"/>
    <nd ref="-1086"/>
    <nd ref="-1087"/>
    <nd ref="-1088"/>
    <nd ref="-1089"/>
    <nd ref="-1090"/>
    <nd ref="-1091"/>
    <nd ref="-1092"/>
    <nd ref="-1093"/>
    <nd ref="-1094"/>
    <nd ref="-1095"/>
    <nd ref="-1096"/>
    <nd ref="-1097"/>
    <nd ref="-1098"/>
    <nd ref="-1099"/>
    <nd ref="-1100"/>
    <nd ref="-1101"/>
    <nd ref="-1102"/>
    <nd ref="-1103"/>
    <nd ref="-1104"/>
    <nd ref="-1105"/>
    <nd ref="-1106"/>
    <nd ref="-1107"/>
    <nd ref="-1108"/>
    <nd ref="-1109"/>
    <nd ref="-1110"/>
    <nd ref="-1111"/>
    <nd ref="-1112"/>
    <nd ref="-1113"/>
    <nd ref="-1114"/>
    <nd ref="-1115"/>
    <nd ref="-1116"/>
    <nd ref="-1117"/>
    <nd ref="-1118"/>
    <nd ref="-1119"/>
    <nd ref="-1120"/>
    <nd ref="-1121"/>
    <nd ref="-1001"/>
    <tag k="osmAG:type" v="area"/>
    <tag k="osmAG:areaType" v="corridor"/>
    <tag k="osmAG:level" v="1"/>
    <tag k="name" v="Area_0"/>
  </way>
  <way id="-2002" action="modify" visible="true">
    <nd ref="-1122"/>
    <nd ref="-1123"/>
    <nd ref="-1124"/>
    <nd ref="-1125"/>
    <nd ref="-1126"/>
    <nd ref="-1127"/>
    <nd ref="-1128"/>
    <nd ref="-1129"/>
    <nd ref="-1130"/>
    <nd ref="-1131"/>
    <nd ref="-1132"/>
    <nd ref="-1133"/>
    <nd ref="-1134"/>
    <nd ref="-1135"/>
    <nd ref="-1136"/>
    <nd ref="-1137"/>
    <nd ref="-1138"/>
    <nd ref="-1139"/>
    <nd ref="-1140"/>
    <nd ref="-1141"/>
    <nd ref="-1142"/>
    <nd ref="-1143"/>
    <nd ref="-1144"/>
    <nd ref="-1145"/>
    <nd ref="-1146"/>
    <nd ref="-1147"/>
    <nd ref="-1148"/>
    <nd ref="-1149"/>
    <nd ref="-1150"/>
    <nd ref="-1151"/>
    <nd ref="-1152"/>
    <nd ref="-1153"/>
    <nd ref="-1154"/>
    <nd ref="-1155"/>
    <nd ref="-1156"/>
    <nd ref="-1157"/>
    <nd ref="-1158"/>
    <nd ref="-1159"/>
    <nd ref="-1160"/>
    <nd ref="-1161"/>
    <nd ref="-1162"/>
    <nd ref="-1163"/>
    <nd ref="-1164"/>
    <nd ref="-1165"/>
    <nd ref="-1166"/>
    <nd ref="-1167"/>
    <nd ref="-1168"/>
    <nd ref="-1169"/>
    <nd ref="-1170"/>
    <nd ref="-1171"/>
    <nd ref="-1172"/>
    <nd ref="-1173"/>
    <nd ref="-1174"/>
    <nd ref="-1175"/>
    <nd ref="-1176"/>
    <nd ref="-1177"/>
    <nd ref="-1178"/>
    <nd ref="-1179"/>
    <nd ref="-1180"/>
    <nd ref="-1181"/>
    <nd ref="-1182"/>
    <nd ref="-1183"/>
    <nd ref="-1184"/>
    <nd ref="-1185"/>
    <nd ref="-1186"/>
    <nd ref="-1187"/>
    <nd ref="-1188"/>
    <nd ref="-1189"/>
    <nd ref="-1190"/>
    <nd ref="-1191"/>
    <nd ref="-1192"/>
    <nd ref="-1193"/>
    <nd ref="-1194"/>
    <nd ref="-1122"/>
    <tag k="osmAG:type" v="area"/>
    <tag k="osmAG:areaType" v="room"/>
    <tag k="osmAG:level" v="1"/>
    <tag k="name" v="Area_1"/>
  </way>
  <way id="-2003" action="modify" visible="true">
    <nd ref="-1195"/>
    <nd ref="-1196"/>
    <nd ref="-1197"/>
    <nd ref="-1198"/>
    <nd ref="-1199"/>
    <nd ref="-1200"/>
    <nd ref="-1201"/>
    <nd ref="-1202"/>
    <nd ref="-1203"/>
    <nd ref="-1204"/>
    <nd ref="-1205"/>
    <nd ref="-1206"/>
    <nd ref="-1207"/>
    <nd ref="-1208"/>
    <nd ref="-1209"/>
    <nd ref="-1210"/>
    <nd ref="-1211"/>
    <nd ref="-1212"/>
    <nd ref="-1213"/>
    <nd ref="-1214"/>
    <nd ref="-1215"/>
    <nd ref="-1216"/>
    <nd ref="-1217"/>
    <nd ref="-1218"/>
    <nd ref="-1219"/>
    <nd ref="-1220"/>
    <nd ref="-1221"/>
    <nd ref="-1222"/>
    <nd ref="-1223"/>
    <nd ref="-1224"/>
    <nd ref="-1225"/>
    <nd ref="-1226"/>
    <nd ref="-1227"/>
    <nd ref="-1228"/>
    <nd ref="-1229"/>
    <nd ref="-1230"/>
    <nd ref="-1231"/>
    <nd ref="-1232"/>
    <nd ref="-1233"/>
    <nd ref="-1234"/>
    <nd ref="-1235"/>
    <nd ref="-1236"/>
    <nd ref="-1237"/>
    <nd ref="-1238"/>
    <nd ref="-1239"/>
    <nd ref="-1240"/>
    <nd ref="-1241"/>
    <nd ref="-1242"/>
    <nd ref="-1243"/>
    <nd ref="-1244"/>
    <nd ref="-1245"/>
    <nd ref="-1246"/>
    <nd ref="-1247"/>
    <nd ref="-1248"/>
    <nd ref="-1249"/>
    <nd ref="-1250"/>
    <nd ref="-1251"/>
    <nd ref="-1252"/>
    <nd ref="-1253"/>
    <nd ref="-1254"/>
    <nd ref="-1255"/>
    <nd ref="-1256"/>
    <nd ref="-1257"/>
    <nd ref="-1258"/>
    <nd ref="-1259"/>
    <nd ref="-1260"/>
    <nd ref="-1261"/>
    <nd ref="-1195"/>
    <tag k="osmAG:type" v="area"/>
    <tag k="osmAG:areaType" v="room"/>
    <tag k="osmAG:level" v="1"/>
    <tag k="name" v="Area_2"/>
  </way>
  <way id="-2004" action="modify" visible="true">
    <nd ref="-1262"/>
    <nd ref="-1263"/>
    <nd ref="-1264"/>
    <nd ref="-1265"/>
    <nd ref="-1266"/>
    <nd ref="-1267"/>
    <nd ref="-1268"/>
    <nd ref="-1269"/>
    <nd ref="-1270"/>
    <nd ref="-1271"/>
    <nd ref="-1272"/>
    <nd ref="-1273"/>
    <nd ref="-1274"/>
    <nd ref="-1275"/>
    <nd ref="-1276"/>
    <nd ref="-1277"/>
    <nd ref="-1278"/>
    <nd ref="-1279"/>
    <nd ref="-1280"/>
    <nd ref="-1281"/>
    <nd ref="-1282"/>
    <nd ref="-1283"/>
    <nd ref="-1284"/>
    <nd ref="-1285"/>
    <nd ref="-1286"/>
    <nd ref="-1287"/>
    <nd ref="-1288"/>
    <nd ref="-1289"/>
    <nd ref="-1290"/>
    <nd ref="-1291"/>
    <nd ref="-1292"/>
    <nd ref="-1293"/>
    <nd ref="-1294"/>
    <nd ref="-1295"/>
    <nd ref="-1296"/>
    <nd ref="-1297"/>
    <nd ref="-1298"/>
    <nd ref="-1299"/>
    <nd ref="-1300"/>
    <nd ref="-1301"/>
    <nd ref="-1302"/>
    <nd ref="-1303"/>
    <nd ref="-1304"/>
    <nd ref="-1305"/>
    <nd ref="-1306"/>
    <nd ref="-1307"/>
    <nd ref="-1308"/>
    <nd ref="-1309"/>
    <nd ref="-1310"/>
    <nd ref="-1311"/>
    <nd ref="-1312"/>
    <nd ref="-1313"/>
    <nd ref="-1314"/>
    <nd ref="-1315"/>
    <nd ref="-1316"/>
    <nd ref="-1317"/>
    <nd ref="-1318"/>
    <nd ref="-1319"/>
    <nd ref="-1320"/>
    <nd ref="-1321"/>
    <nd ref="-1322"/>
    <nd ref="-1323"/>
    <nd ref="-1262"/>
    <tag k="osmAG:type" v="area"/>
    <tag k="osmAG:areaType" v="room"/>
    <tag k="osmAG:level" v="1"/>
    <tag k="name" v="Area_3"/>
  </way>
  <way id="-2005" action="modify" visible="true">
    <nd ref="-1324"/>
    <nd ref="-1325"/>
    <nd ref="-1326"/>
    <nd ref="-1327"/>
    <nd ref="-1328"/>
    <nd ref="-1329"/>
    <nd ref="-1330"/>
    <nd ref="-1331"/>
    <nd ref="-1332"/>
    <nd ref="-1333"/>
    <nd ref="-1334"/>
    <nd ref="-1335"/>
    <nd ref="-1336"/>
    <nd ref="-1337"/>
    <nd ref="-1338"/>
    <nd ref="-1339"/>
    <nd ref="-1340"/>
    <nd ref="-1341"/>
    <nd ref="-1342"/>
    <nd ref="-1343"/>
    <nd ref="-1344"/>
    <nd ref="-1345"/>
    <nd ref="-1346"/>
    <nd ref="-1347"/>
    <nd ref="-1348"/>
    <nd ref="-1349"/>
    <nd ref="-1350"/>
    <nd ref="-1351"/>
    <nd ref="-1352"/>
    <nd ref="-1353"/>
    <nd ref="-1354"/>
    <nd ref="-1355"/>
    <nd ref="-1356"/>
    <nd ref="-1357"/>
    <nd ref="-1358"/>
    <nd ref="-1359"/>
    <nd ref="-1360"/>
    <nd ref="-1361"/>
    <nd ref="-1362"/>
    <nd ref="-1363"/>
    <nd ref="-1364"/>
    <nd ref="-1365"/>
    <nd ref="-1366"/>
    <nd ref="-1367"/>
    <nd ref="-1368"/>
    <nd ref="-1369"/>
    <nd ref="-1370"/>
    <nd ref="-1371"/>
    <nd ref="-1372"/>
    <nd ref="-1373"/>
    <nd ref="-1374"/>
    <nd ref="-1375"/>
    <nd ref="-1376"/>
    <nd ref="-1377"/>
    <nd ref="-1378"/>
    <nd ref="-1379"/>
    <nd ref="-1380"/>
    <nd ref="-1381"/>
    <nd ref="-1382"/>
    <nd ref="-1383"/>
    <nd ref="-1384"/>
    <nd ref="-1385"/>
    <nd ref="-1386"/>
    <nd ref="-1387"/>
    <nd ref="-1388"/>
    <nd ref="-1389"/>
    <nd ref="-1390"/>
    <nd ref="-1391"/>
    <nd ref="-1392"/>
    <nd ref="-1393"/>
    <nd ref="-1394"/>
    <nd ref="-1395"/>
    <nd ref="-1396"/>
    <nd ref="-1397"/>
    <nd ref="-1398"/>
    <nd ref="-1399"/>
    <nd ref="-1400"/>
    <nd ref="-1401"/>
    <nd ref="-1402"/>
    <nd ref="-1403"/>
    <nd ref="-1404"/>
    <nd ref="-1405"/>
    <nd ref="-1406"/>
    <nd ref="-1407"/>
    <nd ref="-1408"/>
    <nd ref="-1409"/>
    <nd ref="-1410"/>
    <nd ref="-1411"/>
    <nd ref="-1412"/>
    <nd ref="-1413"/>
    <nd ref="-1414"/>
    <nd ref="-1415"/>
    <nd ref="-1416"/>
    <nd ref="-1417"/>
    <nd ref="-1418"/>
    <nd ref="-1419"/>
    <nd ref="-1420"/>
    <nd ref="-1421"/>
    <nd ref="-1422"/>
    <nd ref="-1423"/>
    <nd ref="-1424"/>
    <nd ref="-1425"/>
    <nd ref="-1426"/>
    <nd ref="-1427"/>
    <nd ref="-1428"/>
    <nd ref="-1429"/>
    <nd ref="-1430"/>
    <nd ref="-1431"/>
    <nd ref="-1432"/>
    <nd ref="-1433"/>
    <nd ref="-1434"/>
    <nd ref="-1435"/>
    <nd ref="-1436"/>
    <nd ref="-1437"/>
    <nd ref="-1438"/>
    <nd ref="-1439"/>
    <nd ref="-1440"/>
    <nd ref="-1441"/>
    <nd ref="-1442"/>
    <nd ref="-1443"/>
    <nd ref="-1444"/>
    <nd ref="-1324"/>
    <tag k="osmAG:type" v="area"/>
    <tag k="osmAG:areaType" v="room"/>
    <tag k="osmAG:level" v="1"/>
    <tag k="name" v="Area_4"/>
  </way>
  <way id="-2006" action="modify" visible="true">
    <nd ref="-1445"/>
    <nd ref="-1446"/>
    <nd ref="-1447"/>
    <nd ref="-1448"/>
    <nd ref="-1449"/>
    <nd ref="-1450"/>
    <nd ref="-1451"/>
    <nd ref="-1452"/>
    <nd ref="-1453"/>
    <nd ref="-1454"/>
    <nd ref="-1455"/>
    <nd ref="-1456"/>
    <nd ref="-1457"/>
    <nd ref="-1458"/>
    <nd ref="-1459"/>
    <nd ref="-1460"/>
    <nd ref="-1461"/>
    <nd ref="-1462"/>
    <nd ref="-1463"/>
    <nd ref="-1464"/>
    <nd ref="-1465"/>
    <nd ref="-1466"/>
    <nd ref="-1467"/>
    <nd ref="-1468"/>
    <nd ref="-1469"/>
    <nd ref="-1470"/>
    <nd ref="-1471"/>
    <nd ref="-1472"/>
    <nd ref="-1473"/>
    <nd ref="-1474"/>
    <nd ref="-1475"/>
    <nd ref="-1476"/>
    <nd ref="-1477"/>
    <nd ref="-1478"/>
    <nd ref="-1479"/>
    <nd ref="-1480"/>
    <nd ref="-1481"/>
    <nd ref="-1482"/>
    <nd ref="-1483"/>
    <nd ref="-1484"/>
    <nd ref="-1485"/>
    <nd ref="-1486"/>
    <nd ref="-1487"/>
    <nd ref="-1488"/>
    <nd ref="-1489"/>
    <nd ref="-1490"/>
    <nd ref="-1491"/>
    <nd ref="-1492"/>
    <nd ref="-1493"/>
    <nd ref="-1494"/>
    <nd ref="-1495"/>
    <nd ref="-1496"/>
    <nd ref="-1497"/>
    <nd ref="-1498"/>
    <nd ref="-1499"/>
    <nd ref="-1500"/>
    <nd ref="-1501"/>
    <nd ref="-1502"/>
    <nd ref="-1503"/>
    <nd ref="-1504"/>
    <nd ref="-1505"/>
    <nd ref="-1506"/>
    <nd ref="-1507"/>
    <nd ref="-1508"/>
    <nd ref="-1509"/>
    <nd ref="-1510"/>
    <nd ref="-1511"/>
    <nd ref="-1512"/>
    <nd ref="-1513"/>
    <nd ref="-1514"/>
    <nd ref="-1515"/>
    <nd ref="-1516"/>
    <nd ref="-1517"/>
    <nd ref="-1445"/>
    <tag k="osmAG:type" v="area"/>
    <tag k="osmAG:areaType" v="room"/>
    <tag k="osmAG:level" v="1"/>
    <tag k="name" v="Area_5"/>
  </way>
  <way id="-2007" action="modify" visible="true">
    <nd ref="-1518"/>
    <nd ref="-1519"/>
    <nd ref="-1520"/>
    <nd ref="-1521"/>
    <nd ref="-1522"/>
    <nd ref="-1523"/>
    <nd ref="-1524"/>
    <nd ref="-1525"/>
    <nd ref="-1526"/>
    <nd ref="-1527"/>
    <nd ref="-1528"/>
    <nd ref="-1529"/>
    <nd ref="-1530"/>
    <nd ref="-1531"/>
    <nd ref="-1532"/>
    <nd ref="-1533"/>
    <nd ref="-1534"/>
    <nd ref="-1535"/>
    <nd ref="-1536"/>
    <nd ref="-1537"/>
    <nd ref="-1538"/>
    <nd ref="-1539"/>
    <nd ref="-1540"/>
    <nd ref="-1541"/>
    <nd ref="-1542"/>
    <nd ref="-1543"/>
    <nd ref="-1544"/>
    <nd ref="-1545"/>
    <nd ref="-1546"/>
    <nd ref="-1547"/>
    <nd ref="-1548"/>
    <nd ref="-1549"/>
    <nd ref="-1550"/>
    <nd ref="-1551"/>
    <nd ref="-1552"/>
    <nd ref="-1553"/>
    <nd ref="-1554"/>
    <nd ref="-1555"/>
    <nd ref="-1556"/>
    <nd ref="-1557"/>
    <nd ref="-1558"/>
    <nd ref="-1559"/>
    <nd ref="-1560"/>
    <nd ref="-1561"/>
    <nd ref="-1562"/>
    <nd ref="-1563"/>
    <nd ref="-1564"/>
    <nd ref="-1565"/>
    <nd ref="-1566"/>
    <nd ref="-1567"/>
    <nd ref="-1568"/>
    <nd ref="-1569"/>
    <nd ref="-1570"/>
    <nd ref="-1571"/>
    <nd ref="-1572"/>
    <nd ref="-1573"/>
    <nd ref="-1574"/>
    <nd ref="-1575"/>
    <nd ref="-1576"/>
    <nd ref="-1577"/>
    <nd ref="-1578"/>
    <nd ref="-1579"/>
    <nd ref="-1580"/>
    <nd ref="-1581"/>
    <nd ref="-1582"/>
    <nd ref="-1583"/>
    <nd ref="-1584"/>
    <nd ref="-1518"/>
    <tag k="osmAG:type" v="area"/>
    <tag k="osmAG:areaType" v="room"/>
    <tag k="osmAG:level" v="1"/>
    <tag k="name" v="Area_6"/>
  </way>
  <way id="-2008" action="modify" visible="true">
    <nd ref="-1585"/>
    <nd ref="-1586"/>
    <nd ref="-1587"/>
    <nd ref="-1588"/>
    <nd ref="-1589"/>
    <nd ref="-1590"/>
    <nd ref="-1591"/>
    <nd ref="-1592"/>
    <nd ref="-1593"/>
    <nd ref="-1594"/>
    <nd ref="-1595"/>
    <nd ref="-1596"/>
    <nd ref="-1597"/>
    <nd ref="-1598"/>
    <nd ref="-1599"/>
    <nd ref="-1600"/>
    <nd ref="-1601"/>
    <nd ref="-1602"/>
    <nd ref="-1603"/>
    <nd ref="-1604"/>
    <nd ref="-1605"/>
    <nd ref="-1606"/>
    <nd ref="-1607"/>
    <nd ref="-1608"/>
    <nd ref="-1609"/>
    <nd ref="-1610"/>
    <nd ref="-1611"/>
    <nd ref="-1612"/>
    <nd ref="-1613"/>
    <nd ref="-1614"/>
    <nd ref="-1615"/>
    <nd ref="-1616"/>
    <nd ref="-1617"/>
    <nd ref="-1618"/>
    <nd ref="-1619"/>
    <nd ref="-1620"/>
    <nd ref="-1621"/>
    <nd ref="-1622"/>
    <nd ref="-1623"/>
    <nd ref="-1624"/>
    <nd ref="-1625"/>
    <nd ref="-1626"/>
    <nd ref="-1627"/>
    <nd ref="-1628"/>
    <nd ref="-1629"/>
    <nd ref="-1630"/>
    <nd ref="-1631"/>
    <nd ref="-1632"/>
    <nd ref="-1633"/>
    <nd ref="-1634"/>
    <nd ref="-1635"/>
    <nd ref="-1636"/>
    <nd ref="-1637"/>
    <nd ref="-1638"/>
    <nd ref="-1639"/>
    <nd ref="-1640"/>
    <nd ref="-1641"/>
    <nd ref="-1642"/>
    <nd ref="-1643"/>
    <nd ref="-1644"/>
    <nd ref="-1645"/>
    <nd ref="-1646"/>
    <nd ref="-1585"/>
    <tag k="osmAG:type" v="area"/>
    <tag k="osmAG:areaType" v="room"/>
    <tag k="osmAG:level" v="1"/>
    <tag k="name" v="Area_7"/>
  </way>
  <way id="-2009" action="modify" visible="true">
    <nd ref="-1647"/>
    <nd ref="-1648"/>
    <tag k="osmAG:type" v="passage"/>
    <tag k="osmAG:from" v="-2001"/>
    <tag k="osmAG:to" v="-2003"/>
    <tag k="name" v="Door_2009"/>
  </way>
  <way id="-2010" action="modify" visible="true">
    <nd ref="-1649"/>
    <nd ref="-1650"/>
    <tag k="osmAG:type" v="passage"/>
    <tag k="osmAG:from" v="-2001"/>
    <tag k="osmAG:to" v="-2002"/>
    <tag k="name" v="Door_2010"/>
  </way>
  <way id="-2011" action="modify" visible="true">
    <nd ref="-1651"/>
    <nd ref="-1652"/>
    <tag k="osmAG:type" v="passage"/>
    <tag k="osmAG:from" v="-2004"/>
    <tag k="osmAG:to" v="-2001"/>
    <tag k="name" v="Door_2011"/>
  </way>
</osm>
